# From MPEC 2022-D36
274P/Tombaugh-Tenagra,e,15.8161,81.3405,38.4710,4.375165,0.1076992,0.43929783,355.2102,02/23.0/2022,2000,g 13.0,4.0
# From MPC 81862
275P/Hermann,e,21.2760,348.7577,174.0218,5.774793,0.0710231,0.71254611,238.3871,02/23.0/2022,2000,g 17.0,4.0
# From MPEC 2020-K19
276P/Vorobjov,e,14.8101,211.3703,199.5997,5.321055,0.0802985,0.26749433,277.6856,02/23.0/2022,2000,g 11.5,4.0
# From MPEC 2021-F20
277P/LINEAR,e,16.7768,276.3335,152.3188,3.853549,0.1302905,0.50588033,54.6959,02/23.0/2022,2000,g 15.1,4.0
# From MPEC 2021-S45
278P/McNaught,e,6.6949,15.3813,237.8737,3.689897,0.1390537,0.43588936,73.6016,02/23.0/2022,2000,g 14.0,4.0
# From MPC100285
279P/La Sagra,e,5.0525,346.2331,5.8365,3.573121,0.1459260,0.39865954,298.6274,02/23.0/2022,2000,g 14.0,4.0
# From MPC 89013
280P/Larsen,e,11.7742,131.3934,104.7618,4.530043,0.1022235,0.41739702,306.0542,02/23.0/2022,2000,g 12.5,4.0
# From MPEC 2021-W31
281P/MOSS,e,4.7190,87.1802,26.6791,4.874128,0.0915922,0.17226552,328.5104,02/23.0/2022,2000,g 11.0,4.0
# From MPC133426
282P/,e,5.8116,9.2969,217.6298,4.240082,0.1128867,0.18845926,13.7014,02/23.0/2022,2000,g 13.5,2.0
# From MPEC 2021-BE3
283P/Spacewatch,e,14.4552,161.1288,22.2406,4.137738,0.1171007,0.48470439,19.6740,02/23.0/2022,2000,g 16.0,2.0
# From MPEC 2022-D36
284P/McNaught,e,11.8613,144.2625,202.4172,3.676653,0.1398058,0.37561631,22.8433,02/23.0/2022,2000,g 13.0,4.0
# From MPC 85339
285P/LINEAR,e,25.0382,185.5067,178.4370,4.507449,0.1029930,0.61853994,326.6924,02/23.0/2022,2000,g 15.0,4.0
# From MPEC 2021-O56
286P/Christensen,e,17.0453,283.9570,24.8568,4.109294,0.1183187,0.42544663,350.6946,02/23.0/2022,2000,g 14.0,4.0
# From MPC 96868
287P/Christensen,e,16.3199,139.0426,189.0303,4.163711,0.1160068,0.27102843,302.3974,02/23.0/2022,2000,g 13.5,4.0
# From MPC133426
288P/,e,3.2378,83.1386,280.2807,3.050773,0.1849648,0.20119299,358.7032,02/23.0/2022,2000,g 16.0,2.0
# From MPEC 2021-S45
289P/Blanpain,e,5.8964,68.8825,9.8488,3.046230,0.1853788,0.68563952,147.3766,02/23.0/2022,2000,g 19.0,4.0
# From MPC 95214
290P/Jager,e,20.0833,302.6845,181.8976,6.213833,0.0636304,0.62789530,187.5773,02/23.0/2022,2000,g 10.5,4.0
# From MPEC 2021-N06
291P/NEAT,e,6.2989,237.8867,173.6398,4.535538,0.1020378,0.43554802,315.4972,02/23.0/2022,2000,g 13.0,4.0
# From MPC115887
292P/Li,e,24.2733,90.9556,319.4778,6.104910,0.0653409,0.58892229,192.3576,02/23.0/2022,2000,g 12.5,4.0
# From MPEC 2021-S45
293P/Spacewatch,e,9.0573,78.4008,41.0120,3.642630,0.1417691,0.41823951,61.0813,02/23.0/2022,2000,g 14.5,4.0
# From MPEC 2020-SI8
294P/LINEAR,e,18.1109,312.3199,235.3747,3.193047,0.1727413,0.60045307,140.5069,02/23.0/2022,2000,g 15.5,4.0
# From MPC 93589
295P/LINEAR,e,21.0741,7.4359,72.8780,5.306041,0.0806396,0.61651822,229.9939,02/23.0/2022,2000,g 12.0,4.0
# From MPEC 2021-N06
296P/Garradd,e,25.2321,263.5859,350.0518,3.494499,0.1508783,0.47872598,78.9533,02/23.0/2022,2000,g 14.0,4.0
# From MPC102956
297P/Beshore,e,10.3195,97.6242,132.7487,3.448204,0.1539270,0.31998959,60.8599,02/23.0/2022,2000,g 15.0,4.0
# From MPC114609
298P/Christensen,e,7.8708,52.8221,100.6584,3.590848,0.1448467,0.38643211,77.4644,02/23.0/2022,2000,g 15.0,4.0
# From MPEC 2022-CN4
299P/Catalina-PANSTARRS,e,10.4708,271.6200,323.8357,4.386623,0.1072775,0.28113439,274.3894,02/23.0/2022,2000,g 11.5,4.0
# From MPC114609
300P/Catalina,e,5.6741,95.6407,222.9208,2.699665,0.2221976,0.69176074,268.4389,02/23.0/2022,2000,g 16.0,4.0
# From MPC 89014
301P/LINEAR-NEAT,e,10.3400,351.1753,193.6444,5.739439,0.0716803,0.58519223,196.3182,02/23.0/2022,2000,g 13.0,4.0
# From MPEC 2020-HN5
302P/Lemmon-PANSTARRS,e,6.0338,121.7479,208.3433,4.274933,0.1115090,0.23027961,236.3621,02/23.0/2022,2000,g 12.5,4.0
# From MPC 92278
303P/NEAT,e,7.0216,347.9720,356.9257,5.045831,0.0869571,0.51085781,233.3186,02/23.0/2022,2000,g 13.5,4.0
# From MPEC 2020-N08
304P/Ory,e,2.6070,58.9187,335.2436,3.150709,0.1762348,0.60070717,98.5998,02/23.0/2022,2000,g 16.5,4.0
# From MPC101100
305P/Skiff,e,11.6585,240.1053,147.3230,4.642448,0.0985334,0.69366948,261.6400,02/23.0/2022,2000,g 18.0,4.0
# From MPC 92278
306P/LINEAR,e,8.3113,341.3732,0.8630,3.123681,0.1785271,0.59329695,136.0304,02/23.0/2022,2000,g 19.0,4.0
# From MPC 92278
307P/LINEAR,e,4.4353,158.1647,222.1327,5.791270,0.0707202,0.67517693,185.2149,02/23.0/2022,2000,g 15.0,4.0
# From MPEC 2022-C56
308P/Lagerkvist-Carsenty,e,4.8524,63.0609,333.6069,6.601788,0.0581048,0.36401714,144.2636,02/23.0/2022,2000,g 13.0,2.0
# From MPC 94284
309P/LINEAR,e,17.0237,10.1456,49.9412,4.372301,0.1078050,0.61791987,277.4943,02/23.0/2022,2000,g 15.0,4.0
# From MPC 98566
310P/Hill,e,13.1278,8.9222,31.7946,4.179582,0.1153466,0.42207225,289.8237,02/23.0/2022,2000,g 13.5,4.0
# From MPEC 2021-BE3
311P/PANSTARRS,e,4.9696,279.2161,144.5386,2.188520,0.3044237,0.11567617,153.3129,02/23.0/2022,2000,g 17.0,4.0
# From MPEC 2021-BE3
312P/NEAT,e,19.7679,144.6699,207.5969,3.468062,0.1526068,0.42787309,78.7255,02/23.0/2022,2000,g 16.0,4.0
# From MPEC 2021-S45
313P/Gibbs,e,10.9810,105.9706,254.7682,3.163470,0.1751695,0.23502680,118.8087,02/23.0/2022,2000,g 15.0,4.0
# From MPC105243
314P/Montani,e,3.9822,267.6080,214.0350,7.263961,0.0503435,0.41619727,98.9056,02/23.0/2022,2000,g  9.5,4.0
# From MPEC 2021-N06
315P/LONEOS,e,17.7441,68.8387,65.7261,4.939835,0.0897709,0.52102514,171.8725,02/23.0/2022,2000,g 11.0,4.0
# From MPC 92279
316P/LONEOS-Christensen,e,9.8291,246.4839,192.7162,4.371129,0.1078484,0.15619549,252.5054,02/23.0/2022,2000,g 13.5,4.0
# From MPEC 2020-C98
317P/WISE,e,11.9508,275.4948,334.8609,2.963219,0.1932228,0.57049347,99.4918,02/23.0/2022,2000,g 17.5,4.0
# From MPC102103
318P/McNaught-Hartley,e,17.8830,35.5439,313.2470,7.500910,0.0479770,0.67528648,110.9431,02/23.0/2022,2000,g  8.5,6.0
# From MPC 97499
319P/Catalina-McNaught,e,15.0951,111.3703,203.6784,3.566409,0.1463381,0.66661799,354.6684,02/23.0/2022,2000,g 15.0,4.0
# From MPC 96281
320P/McNaught,e,4.9083,295.9352,0.7801,3.093644,0.1811334,0.68557943,72.7977,02/23.0/2022,2000,g 20.5,4.0
# From MPC105243
321P/SOHO,e,20.0905,165.0179,172.7475,2.423463,0.2612458,0.98111103,0.0000,10/26.4853/2023,2000,g 20.0,4.0
# From MPC102103
322P/SOHO,e,11.4677,351.5267,56.8744,2.507881,0.2481668,0.97989436,0.0000,08/21.0937/2023,2000,g 19.0,4.0
# From MPEC 2016-Y36
323P/SOHO,e,5.3352,324.3832,353.0523,2.582978,0.2374231,0.98482412,0.0000,01/17.7873/2021,2000,g 20.0,4.0
# From MPEC 2021-W31
324P/LaSagra,e,21.4036,270.5871,57.5518,3.094781,0.1810336,0.15394491,53.1695,02/23.0/2022,2000,g 13.0,4.0
# From MPC114609
325P/Yang-Gao,e,16.6939,257.5599,343.7001,3.522925,0.1490558,0.59340186,354.9061,02/23.0/2022,2000,g 14.0,4.0
# From MPC103849
326P/Hill,e,2.4710,99.8090,278.6247,4.062743,0.1203580,0.31801459,278.6882,02/23.0/2022,2000,g 13.5,4.0
# From MPC 97499
327P/Van Ness,e,36.2512,173.9848,185.0499,3.561990,0.1466105,0.56316246,331.9325,02/23.0/2022,2000,g 16.0,4.0
# From MPC109148
328P/LONEOS-Tucker,e,17.6731,341.6348,30.5178,4.193092,0.1147896,0.55248251,258.3030,02/23.0/2022,2000,g 14.5,4.0
# From MPC101101
329P/LINEAR-Catalina,e,21.6852,87.6652,343.5297,5.190053,0.0833578,0.67759655,189.7931,02/23.0/2022,2000,g 13.5,4.0
# From MPC105243
330P/Catalina,e,15.6990,293.0900,188.9078,6.625811,0.0577890,0.54840889,116.0047,02/23.0/2022,2000,g 12.0,4.0
# From MPEC 2022-C56
331P/Gibbs,e,9.7379,216.7620,184.2419,3.005115,0.1891962,0.04112051,96.2976,02/23.0/2022,2000,g 12.0,4.0
# From MPEC 2016-K18
332P/Ikeya-Murakami,e,9.3800,3.7857,152.3296,3.088812,0.1815586,0.48942201,34.2425,02/23.0/2022,2000,g 18.0,4.0
# From MPEC 2016-EI8
332P-B/Ikeya-Murakami,e,9.3805,3.8028,152.3711,3.082329,0.1821317,0.48970701,359.9699,03/17.0/2016,2000,g 19.0,4.0
# From MPEC 2016-K18
332P-C/Ikeya-Murakami,e,9.3791,3.7861,152.3209,3.088778,0.1815616,0.48942747,34.2572,02/23.0/2022,2000,g 16.5,4.0
# From MPEC 2016-ED0
332P-D/Ikeya-Murakami,e,9.3761,3.7923,152.4393,3.081138,0.1822373,0.48977814,359.9486,03/17.0/2016,2000,g 19.0,4.0
# From MPEC 2016-ED0
332P-E/Ikeya-Murakami,e,9.3774,3.8228,152.2825,3.079877,0.1823493,0.48922008,359.9889,03/17.0/2016,2000,g 21.0,4.0
# From MPEC 2016-ED0
332P-F/Ikeya-Murakami,e,9.5293,3.4757,152.8203,3.163214,0.1751908,0.49918860,359.8501,03/17.0/2016,2000,g 21.0,4.0
# From MPEC 2016-ED0
332P-G/Ikeya-Murakami,e,9.2523,3.6955,154.4000,3.050519,0.1849880,0.49200362,359.9006,03/19.0/2016,2000,g 19.0,4.0
# From MPC100285
332P-H/Ikeya-Murakami,e,9.3796,3.7858,152.3216,3.088964,0.1815453,0.48946271,34.1891,02/23.0/2022,2000,g 19.0,4.0
# From MPEC 2016-ED0
332P-I/Ikeya-Murakami,e,9.3791,3.8048,152.3297,3.081767,0.1821815,0.48955490,359.9360,03/17.0/2016,2000,g 20.5,2.0
# From MPEC 2016-EI8
332P-J/Ikeya-Murakami,e,9.4296,3.6729,152.7712,3.115165,0.1792596,0.49429435,359.8613,03/17.0/2016,2000,g 20.5,2.0
# From MPEC 2020-L06
333P/LINEAR,e,131.9898,115.6358,25.9911,4.220133,0.1136881,0.73666386,245.1590,02/23.0/2022,2000,g 15.0,4.0
# From MPC115888
334P/NEAT,e,20.4125,90.6347,90.1133,6.838356,0.0551159,0.35085725,95.0037,02/23.0/2022,2000,g 10.5,4.0
# From MPEC 2021-U31
335P/Gibbs,e,7.2934,330.8472,162.3099,3.577190,0.1456770,0.54605114,335.2325,02/23.0/2022,2000,g 17.0,4.0
# From MPC105244
336P/McNaught,e,17.8312,298.2466,308.7476,5.034245,0.0872575,0.44450909,161.2313,02/23.0/2022,2000,g 13.5,4.0
# From MPEC 2021-N06
337P/WISE,e,15.3709,106.0622,161.0236,3.286125,0.1654543,0.49664073,338.7977,02/23.0/2022,2000,g 17.0,4.0
# From MPC104796
338P/McNaught,e,25.3848,9.7963,4.4346,3.895666,0.1281833,0.41184603,245.6818,02/23.0/2022,2000,g 12.0,4.0
# From MPC101101
339P/Gibbs,e,5.7333,172.7255,27.4914,3.698020,0.1385959,0.63546926,283.2114,02/23.0/2022,2000,g 17.0,4.0
# From MPC133426
340P/Boattini,e,2.0786,291.6991,35.9287,4.250728,0.1124628,0.28081132,215.8331,02/23.0/2022,2000,g 14.3,4.0
# From MPEC 2021-BE3
341P/Gibbs,e,3.7967,29.9704,312.2098,4.292180,0.1108376,0.41568279,232.1010,02/23.0/2022,2000,g 12.5,4.0
# From MPC101101
342P/SOHO,e,11.6659,27.7020,73.2703,3.042324,0.1857359,0.98276387,0.0000,10/19.2997/2021,2000,g  9.0,4.0
# From MPC109148
